NORAD_CAT_ID,OBJECT_NAME,OBJECT_TYPE,EPOCH,MEAN_MOTION,ECCENTRICITY,INCLINATION,RA_OF_ASC_NODE,ARG_OF_PERICENTER,MEAN_ANOMALY,BSTAR,MEAN_MOTION_DOT,MEAN_MOTION_DDOT,TLE_LINE0,TLE_LINE1,TLE_LINE2,SEMIMAJOR_AXIS,PERIOD,APOGEE,PERIGEE,DECAYED
53037.0,STARLINK-4153,PAYLOAD,2024-07-05 00:31:48,15.08847264,0.0001127,53.2179,304.4944,94.1105,266.0016,0.0001724,2.458e-05,0.0,0 STARLINK-4153,1 53037U 22076BD  24187.02208414  .00002458  00000-0  17240-3 0  9994,2 53037  53.2179 304.4944 0001127  94.1105 266.0016 15.08847264111094,6917.858,95.437,540.503,538.944,0.0
53037.0,STARLINK-4153,PAYLOAD,2024-07-05 13:14:53,15.08839298,0.0001309,53.2179,302.1172,91.6225,268.4917,4.849e-05,4.84e-06,0.0,0 STARLINK-4153,1 53037U 22076BD  24187.55200962  .00000484  00000-0  48490-4 0  9991,2 53037  53.2179 302.1172 0001309  91.6225 268.4917 15.08839298111172,6917.883,95.438,540.653,538.842,0.0
53037.0,STARLINK-4153,PAYLOAD,2024-07-05 14:50:16,15.08843215,0.0001263,53.2182,301.8209,91.9578,268.1559,0.00011119,1.482e-05,0.0,0 STARLINK-4153,1 53037U 22076BD  24187.61824759  .00001482  00000-0  11119-3 0  9990,2 53037  53.2182 301.8209 0001263  91.9578 268.1559 15.08843215110729,6917.871,95.437,540.609,538.862,0.0
53037.0,STARLINK-4153,PAYLOAD,2024-07-06 00:22:34,15.08857552,0.0001267,53.2185,300.0364,90.6182,269.4955,0.00029609,4.43e-05,0.0,0 STARLINK-4153,1 53037U 22076BD  24188.01567917  .00004430  00000-0  29609-3 0  9994,2 53037  53.2185 300.0364 0001267  90.6182 269.4955 15.08857552111247,6917.827,95.436,540.568,538.815,0.0
53037.0,STARLINK-4153,PAYLOAD,2024-07-06 13:05:40,15.08832415,0.0001628,53.2191,297.6615,107.0718,253.0453,-2.3626e-05,-6.64e-06,0.0,0 STARLINK-4153,1 53037U 22076BD  24188.54561215 -.00000664  00000-0 -23626-4 0  9998,2 53037  53.2191 297.6615 0001628 107.0718 253.0453 15.08832415111325,6917.904,95.438,540.895,538.642,0.0
53037.0,STARLINK-4153,PAYLOAD,2024-07-07 14:31:51,15.08844116,0.0001452,53.2174,292.8991,88.1243,271.9915,0.00031139,4.672e-05,0.0,0 STARLINK-4153,1 53037U 22076BD  24189.60545242  .00004672  00000-0  31139-3 0  9996,2 53037  53.2174 292.8991 0001452  88.1243 271.9915 15.08844116111487,6917.868,95.437,540.737,538.728,0.0
53037.0,STARLINK-4153,PAYLOAD,2024-07-08 12:47:14,15.08847017,0.000126,53.2159,288.7344,84.5566,275.557,0.00032088,4.824e-05,0.0,0 STARLINK-4153,1 53037U 22076BD  24190.53281183  .00004824  00000-0  32088-3 0  9994,2 53037  53.2159 288.7344 0001260  84.5566 275.5570 15.08847017111627,6917.859,95.437,540.596,538.852,0.0
53037.0,STARLINK-4153,PAYLOAD,2024-07-09 12:38:01,15.08841706,0.000135,53.2162,284.2748,88.4111,271.7036,5.5048e-05,5.88e-06,0.0,0 STARLINK-4153,1 53037U 22076BD  24191.52641164  .00000588  00000-0  55048-4 0  9998,2 53037  53.2162 284.2748 0001350  88.4111 271.7036 15.08841706111779,6917.875,95.437,540.674,538.806,0.0
53037.0,STARLINK-4153,PAYLOAD,2024-07-10 12:28:49,15.08838324,0.0001396,53.2167,279.8138,95.2903,264.8249,5.6361e-05,6.09e-06,0.0,0 STARLINK-4153,1 53037U 22076BD  24192.52001272  .00000609  00000-0  56361-4 0  9992,2 53037  53.2167 279.8138 0001396  95.2903 264.8249 15.08838324111469,6917.886,95.438,540.716,538.785,0.0
53037.0,STARLINK-4153,PAYLOAD,2024-07-10 15:39:35,15.08840077,0.0001487,53.2166,279.2189,96.5348,263.5813,0.00012304,1.671e-05,0.0,0 STARLINK-4153,1 53037U 22076BD  24192.65249297  .00001671  00000-0  12304-3 0  9995,2 53037  53.2166 279.2189 0001487  96.5348 263.5813 15.08840077111940,6917.88,95.438,540.774,538.716,0.0
53037.0,STARLINK-4153,PAYLOAD,2024-07-11 12:19:36,15.08840761,0.0001367,53.2163,275.3527,95.7037,264.4111,0.00019095,2.752e-05,0.0,0 STARLINK-4153,1 53037U 22076BD  24193.51361438  .00002752  00000-0  19095-3 0  9998,2 53037  53.2163 275.3527 0001367  95.7037 264.4111 15.08840761111618,6917.878,95.438,540.689,538.797,0.0
53037.0,STARLINK-4153,PAYLOAD,2024-07-12 05:48:50,15.08845032,0.0001378,53.2164,272.081,97.7682,262.3467,0.00027059,4.022e-05,0.0,0 STARLINK-4153,1 53037U 22076BD  24194.24225369  .00004022  00000-0  27059-3 0  9992,2 53037  53.2164 272.0810 0001378  97.7682 262.3467 15.08845032112188,6917.865,95.437,540.683,538.777,0.0
53037.0,STARLINK-4153,PAYLOAD,2024-07-12 12:10:23,15.0884433,0.0001311,53.2155,270.8936,92.3346,267.7797,0.00022681,3.324e-05,0.0,0 STARLINK-4153,1 53037U 22076BD  24194.50721398  .00003324  00000-0  22681-3 0  9994,2 53037  53.2155 270.8936 0001311  92.3346 267.7797 15.08844330111766,6917.867,95.437,540.639,538.825,0.0
53037.0,STARLINK-4153,PAYLOAD,2024-07-12 21:42:41,15.08854973,0.0001257,53.2155,269.1084,89.8102,270.3034,0.00033377,5.03e-05,0.0,0 STARLINK-4153,1 53037U 22076BD  24194.90464769  .00005030  00000-0  33377-3 0  9994,2 53037  53.2155 269.1084 0001257  89.8102 270.3034 15.08854973111826,6917.835,95.437,540.569,538.83,0.0
53037.0,STARLINK-4153,PAYLOAD,2024-07-13 12:01:11,15.08809114,0.0001373,53.2153,266.4333,98.6069,261.5078,-0.00042453,-7.032e-05,0.0,0 STARLINK-4153,1 53037U 22076BD  24195.50083174 -.00007032  00000-0 -42453-3 0  9999,2 53037  53.2153 266.4333 0001373  98.6069 261.5078 15.08809114112378,6917.975,95.44,540.79,538.89,0.0
53037.0,STARLINK-4153,PAYLOAD,2024-07-13 13:36:35,15.08809931,0.0001366,53.2154,266.1354,95.2448,264.87,-0.00038735,-6.442e-05,0.0,0 STARLINK-4153,1 53037U 22076BD  24195.56707271 -.00006442  00000-0 -38735-3 0  9998,2 53037  53.2154 266.1354 0001366  95.2448 264.8700 15.08809931111920,6917.972,95.439,540.782,538.892,0.0
53037.0,STARLINK-4153,PAYLOAD,2024-07-13 21:33:31,15.08816273,0.0001436,53.2157,264.6492,103.464,256.6512,-0.0001538,-2.733e-05,0.0,0 STARLINK-4153,1 53037U 22076BD  24195.89827643 -.00002733  00000-0 -15380-3 0  9990,2 53037  53.2157 264.6492 0001436 103.4640 256.6512 15.08816273111975,6917.953,95.439,540.811,538.824,0.0
53037.0,STARLINK-4153,PAYLOAD,2024-07-14 13:27:22,15.08861287,0.0001201,53.214,261.6726,99.5384,260.5744,0.0018579,0.00029422,0.0,0 STARLINK-4153,1 53037U 22076BD  24196.56067579  .00029422  00000-0  18579-2 0  9993,2 53037  53.2140 261.6726 0001201  99.5384 260.5744 15.08861287112533,6917.815,95.436,540.511,538.849,0.0
53037.0,STARLINK-4153,PAYLOAD,2024-07-15 11:42:45,15.08875709,0.0001114,53.2138,257.5099,101.7736,258.3381,0.0021651,0.00034372,0.0,0 STARLINK-4153,1 53037U 22076BD  24197.48802120  .00034372  00000-0  21651-2 0  9999,2 53037  53.2138 257.5099 0001114 101.7736 258.3381 15.08875709112678,6917.771,95.435,540.407,538.866,0.0
53037.0,STARLINK-4153,PAYLOAD,2024-07-16 09:58:08,15.08872098,0.0001949,53.2151,253.3481,156.7132,203.3948,0.0016565,0.00026197,0.0,0 STARLINK-4153,1 53037U 22076BD  24198.41537174  .00026197  00000-0  16565-2 0  9991,2 53037  53.2151 253.3481 0001949 156.7132 203.3948 15.08872098112811,6917.782,95.436,540.996,538.299,0.0
53037.0,STARLINK-4153,PAYLOAD,2024-07-17 09:48:56,15.0882952,0.0001237,53.2151,248.8867,71.9343,288.1783,0.001167,0.00018328,0.0,0 STARLINK-4153,1 53037U 22076BD  24199.40898233  .00018328  00000-0  11670-2 0  9996,2 53037  53.2151 248.8867 0001237  71.9343 288.1783 15.08829520112966,6917.912,95.438,540.633,538.922,0.0
53037.0,STARLINK-4153,PAYLOAD,2024-07-18 09:39:43,15.08840995,0.0001475,53.2156,244.4252,86.0734,274.0426,0.00039623,6.024e-05,0.0,0 STARLINK-4153,1 53037U 22076BD  24200.40258522  .00006024  00000-0  39623-3 0  9999,2 53037  53.2156 244.4252 0001475  86.0734 274.0426 15.08840995113111,6917.877,95.437,540.763,538.722,0.0
53037.0,STARLINK-4153,PAYLOAD,2024-07-19 11:05:53,15.08841775,0.0001411,53.215,239.6678,85.849,274.2663,0.00017922,2.566e-05,0.0,0 STARLINK-4153,1 53037U 22076BD  24201.46242476  .00002566  00000-0  17922-3 0  9992,2 53037  53.2150 239.6678 0001411  85.8490 274.2663 15.08841775113278,6917.875,95.437,540.716,538.764,0.0
53037.0,STARLINK-4153,PAYLOAD,2024-07-19 19:02:48,15.08848785,0.0001404,53.215,238.181,86.0703,274.045,0.00025348,3.749e-05,0.0,0 STARLINK-4153,1 53037U 22076BD  24201.79362103  .00003749  00000-0  25348-3 0  9993,2 53037  53.2150 238.1810 0001404  86.0703 274.0450 15.08848785112866,6917.854,95.437,540.69,538.747,0.0
53037.0,STARLINK-4153,PAYLOAD,2024-07-20 09:21:17,15.08840557,0.0001461,53.2154,235.5094,94.6144,265.5015,3.6178e-05,2.88e-06,0.0,0 STARLINK-4153,1 53037U 22076BD  24202.38978385  .00000288  00000-0  36178-4 0  9993,2 53037  53.2154 235.5094 0001461  94.6144 265.5015 15.08840557112953,6917.879,95.438,540.754,538.733,0.0
53037.0,STARLINK-4153,PAYLOAD,2024-07-20 18:53:35,15.08845489,0.000151,53.2157,233.7248,94.4992,265.6172,7.5053e-05,9.07e-06,0.0,0 STARLINK-4153,1 53037U 22076BD  24202.78722089  .00000907  00000-0  75053-4 0  9998,2 53037  53.2157 233.7248 0001510  94.4992 265.6172 15.08845489113473,6917.864,95.437,540.773,538.684,0.0
53037.0,STARLINK-4153,PAYLOAD,2024-07-21 07:36:41,15.08831476,0.0001603,53.2162,231.347,104.3434,255.7736,-6.3628e-05,-1.3e-05,0.0,0 STARLINK-4153,1 53037U 22076BD  24203.31714839 -.00001300  00000-0 -63628-4 0  9997,2 53037  53.2162 231.3470 0001603 104.3434 255.7736 15.08831476113551,6917.906,95.438,540.88,538.663,0.0
53037.0,STARLINK-4153,PAYLOAD,2024-07-22 10:38:16,15.08824707,0.0001201,53.2154,226.2866,84.5484,275.5645,-8.0734e-05,-1.572e-05,0.0,0 STARLINK-4153,1 53037U 22076BD  24204.44324352 -.00001572  00000-0 -80734-4 0  9997,2 53037  53.2154 226.2866 0001201  84.5484 275.5645 15.08824707113729,6917.927,95.439,540.623,538.961,0.0
53037.0,STARLINK-4153,PAYLOAD,2024-07-23 08:53:39,15.08837945,0.0001503,53.2155,222.1241,118.2535,241.8609,-1.8032e-05,-5.75e-06,0.0,0 STARLINK-4153,1 53037U 22076BD  24205.37060076 -.00000575  00000-0 -18032-4 0  9994,2 53037  53.2155 222.1241 0001503 118.2535 241.8609 15.08837945113868,6917.887,95.438,540.791,538.712,0.0
53037.0,STARLINK-4153,PAYLOAD,2024-07-24 07:09:04,15.0883475,0.0001236,53.2153,217.9608,83.9004,276.2129,0.00027605,4.108e-05,0.0,0 STARLINK-4153,1 53037U 22076BD  24206.29796391  .00004108  00000-0  27605-3 0  9991,2 53037  53.2153 217.9608 0001236  83.9004 276.2129 15.08834750113542,6917.896,95.438,540.616,538.906,0.0
